COMSATBW-1              
1 35943U 09054B   16355.86411291  .00000020  00000-0  00000-0 0  9996
2 35943   0.0453  63.2978 0003073 215.3648 185.2760  1.00270576 26561
NSS-12                  
1 36032U 09058A   16356.04616623  .00000067  00000-0  00000+0 0  9997
2 36032   0.0161   9.5148 0003426 268.9469 245.2013  1.00273372 26190
THOR 6                  
1 36033U 09058B   16355.92896672 -.00000014  00000-0  00000-0 0  9992
2 36033   0.0412 134.2064 0001841 149.4813 139.8234  1.00273305 26287
INTELSAT 14 (IS-14)     
1 36097U 09064A   16354.87797579 -.00000281  00000-0  00000+0 0  9993
2 36097   0.0125 318.0663 0002923 327.3542  74.5444  1.00269273 25953
EUTELSAT 36B            
1 36101U 09065A   16355.99899675  .00000151  00000-0  00000+0 0  9999
2 36101   0.0621   8.3285 0004851 269.4794 207.7191  1.00271557 26066
INTELSAT 15 (IS-15)     
1 36106U 09067A   16355.79837319 -.00000191  00000-0  00000-0 0  9997
2 36106   0.0094   0.7722 0002543 281.8332 179.7563  1.00271691  6562
DIRECTV 12              
1 36131U 09075A   16355.51287390 -.00000108  00000-0  00000-0 0  9990
2 36131   0.0104 203.5557 0000293  51.7618 276.0376  1.00270122 11862
BEIDOU G1               
1 36287U 10001A   16356.41040160 -.00000287  00000-0  10000-3 0  9997
2 36287   1.5356   9.2213 0005274 237.1463 131.8867  1.00272711 25438
RADUGA-1M 2             
1 36358U 10002A   16355.79852369 -.00000188  00000-0  00000+0 0  9994
2 36358   0.0156 333.8602 0003207 336.9118 151.4825  1.00269693 25264
SDO                     
1 36395U 10005A   16356.28976421 -.00000039  00000-0  00000+0 0  9994
2 36395  28.5760 143.6303 0001918 147.0805 162.2438  1.00271048 25286
INTELSAT 16 (IS-16)     
1 36397U 10006A   16355.30666679 -.00000291  00000-0  00000+0 0  9990
2 36397   0.0218 304.1285 0002747 356.8781 200.6095  1.00271286 24984
GOES 15                 
1 36411U 10008A   16356.12491867  .00000084  00000-0  00000+0 0  9994
2 36411   0.1580 265.0032 0001272 336.8943 118.0878  1.00279858 24949
ECHOSTAR 14             
1 36499U 10010A   16356.33415808 -.00000003  00000-0  00000+0 0  9999
2 36499   0.0015  22.1988 0002471 249.0977 180.4241  1.00272595 24794
SES-1                   
1 36516U 10016A   16356.27152583 -.00000118  00000-0  00000+0 0  9993
2 36516   0.0184  28.2564 0002072 257.2862 161.4667  1.00271856 24395
ASTRA 3B                
1 36581U 10021A   16355.22728465  .00000131  00000-0  00000+0 0  9997
2 36581   0.0413 336.5795 0002719 289.1898 288.7867  1.00272868 23897
COMSATBW-2              
1 36582U 10021B   16356.25385946  .00000085  00000-0  00000+0 0  9993
2 36582   0.0578 300.7814 0003141 355.9758 258.1224  1.00276549 24240
BEIDOU G3               
1 36590U 10024A   16355.46742671 -.00000362  00000-0  00000+0 0  9998
2 36590   1.4249  29.4819 0006353 296.0717  42.7368  1.00275763 24026
BADR-5                  
1 36592U 10025A   16356.12057340  .00000141  00000-0  00000+0 0  9991
2 36592   0.0280 110.9586 0003653 126.4492 282.1194  1.00275096 24151
COMS 1                  
1 36744U 10032A   16355.90537133 -.00000349  00000-0  00000+0 0  9997
2 36744   0.0172  32.7731 0001274 267.4499 243.8506  1.00271434 23908
ARABSAT-5A              
1 36745U 10032B   16355.93113661  .00000149  00000-0  00000-0 0  9995
2 36745   0.0509   4.1093 0003060 268.4332 183.0880  1.00270376 23903
ECHOSTAR 15             
1 36792U 10034A   16356.44546370 -.00000285  00000-0  00000+0 0  9994
2 36792   0.0341 308.7153 0002790 347.5352 252.9142  1.00271944 23650
NILESAT 201             
1 36830U 10037A   16355.29587814 -.00000064  00000-0  00000+0 0  9995
2 36830   0.0568 171.2735 0003251  97.3992 280.1571  1.00270732 23536
RASCOM-QAF 1R           
1 36831U 10037B   16355.74233142  .00000013  00000-0  00000-0 0  9992
2 36831   0.0259  25.5530 0006772 244.2051  90.1643  1.00269703 23555
CHINASAT 6A (ZX 6A)     
1 37150U 10042A   16355.90583624 -.00000358  00000-0  00000+0 0  9996
2 37150   0.0525 125.5220 0000592 258.0190 157.5523  1.00273411 23156
QZS-1 (MICHIBIKI)       
1 37158U 10045A   16355.64020421 -.00000097  00000-0  00000+0 0  9999
2 37158  40.7693 161.9237 0746050 269.9302  26.8232  1.00273940 22965
XM-5                    
1 37185U 10053A   16356.26670308 -.00000209  00000-0  00000+0 0  9997
2 37185   0.0148 354.4379 0000319  36.1815  70.4465  1.00271451 22709
BSAT-3B                 
1 37207U 10056B   16355.89371894 -.00000355  00000-0  00000+0 0  9993
2 37207   0.0589 317.5660 0005150 342.7624 221.1723  1.00272229 22524
BEIDOU G4               
1 37210U 10057A   16356.45215943 -.00000115  00000-0  00000+0 0  9997
2 37210   0.7755  44.2199 0007671 188.2130 180.8081  1.00273054 22543
SKYTERRA 1              
1 37218U 10061A   16354.94754043 -.00000125  00000-0  00000-0 0  9993
2 37218   3.4450 328.6746 0002126 238.8655 121.2435  1.00272324 22455
ZHONGXING-20A           
1 37234U 10064A   16355.90464877 -.00000341  00000-0  00000+0 0  9993
2 37234   0.0399 206.0395 0004710 100.2877 239.2394  1.00276837 22284
HYLAS 1                 
1 37237U 10065A   16356.32300353 -.00000237  00000-0  00000+0 0  9996
2 37237   0.0261  12.0902 0002109 282.1592 238.8328  1.00269675 22260
INTELSAT 17 (IS-17)     
1 37238U 10065B   16355.97634274 -.00000006  00000-0  00000+0 0  9993
2 37238   0.0409 272.2047 0002499 358.7742 236.4853  1.00271996 22170
EUTELSAT KA-SAT 9A      
1 37258U 10069A   16355.72568340  .00000057  00000-0  00000+0 0  9997
2 37258   0.0502 293.0711 0003214 333.3109  93.5789  1.00272978 22077
HISPASAT 1E             
1 37264U 10070A   16355.68837861 -.00000221  00000-0  00000-0 0  9993
2 37264   0.0416 170.3868 0003043  83.5290  53.5852  1.00270487 18438
KOREASAT 6              
1 37265U 10070B   16355.97222987 -.00000366  00000-0  00000+0 0  9992
2 37265   0.0154 316.9948 0001835 318.9763 280.0008  1.00271563 21937
ELEKTRO-L 1 (GOMS 2)    
1 37344U 11001A   16356.54563500 -.00000165  00000-0  00000+0 0  9995
2 37344   2.0771  78.5320 0003581 254.6587 293.5767  1.00247087 21729
BEIDOU IGSO 3           
1 37384U 11013A   16355.63532053 -.00000207  00000-0  10000-3 0  9992
2 37384  57.6018  74.8090 0026844 207.0975 155.3481  1.00257340 20939
INTELSAT NEW DAWN       
1 37392U 11016A   16355.92927666  .00000151  00000-0  00000-0 0  9997
2 37392   0.0273 254.6934 0000948   8.7024 193.8620  1.00274351 18554
YAHSAT 1A               
1 37393U 11016B   16356.17555939  .00000097  00000-0  00000+0 0  9994
2 37393   0.0178 326.0999 0002568 329.5080 270.2549  1.00271873 20818
TELSTAR 14R             
1 37602U 11021A   16356.06646600 -.00000284  00000-0  00000+0 0  9996
2 37602   0.0309 313.2913 0001988 323.5216 134.1736  1.00271472 21048
GSAT-8                  
1 37605U 11022A   16355.87157288  .00000080  00000-0  00000-0 0  9991
2 37605   0.0583 103.2613 0008642 169.0234 186.4295  1.00272132 18484
ST-2                    
1 37606U 11022B   16355.85480065 -.00000216  00000-0  00000+0 0  9993
2 37606   0.0125 303.3416 0001986 351.3002 190.9531  1.00270076 20508
CHINASAT 10 (ZX 10)     
1 37677U 11026A   16355.98364610 -.00000356  00000-0  00000+0 0  9991
2 37677   0.0535  90.1254 0005807 173.5342 290.9100  1.00267873 20222
TIANLIAN 1-02           
1 37737U 11032A   16356.19596089  .00000025  00000-0  00000+0 0  9998
2 37737   2.2292  78.2573 0010005 177.8333  81.3617  1.00273834 19976
GSAT-12                 
1 37746U 11034A   16355.79898137 -.00000170  00000-0  00000-0 0  9997
2 37746   0.0193 347.7655 0002991 141.4322 331.2248  1.00271164  8752
SES-3                   
1 37748U 11035A   16355.56862472 -.00000107  00000-0  00000-0 0  9998
2 37748   0.0158  22.3246 0002744 248.2064 280.7385  1.00272404 19864
KAZSAT-2                
1 37749U 11035B   16355.79669068 -.00000203  00000-0  00000-0 0  9997
2 37749   0.0295 228.0336 0001398 105.6108 129.4971  1.00271480 18650
ASTRA 1N                
1 37775U 11041A   16355.99395177  .00000115  00000-0  00000+0 0  9992
2 37775   0.0503  16.5417 0002072 320.3355 130.1469  1.00272605 19653
BSAT-3C (JCSAT-110R)    
1 37776U 11041B   16356.41409552 -.00000354  00000-0  00000+0 0  9990
2 37776   0.0288 288.6589 0000205 101.6771 319.1109  1.00269505 19772
PAKSAT-1R               
1 37779U 11042A   16356.17588247  .00000150  00000-0  00000+0 0  9999
2 37779   0.0079 150.2530 0003323 140.3290 260.8927  1.00272283 19534
CHINASAT 1A (ZX 1A)     
1 37804U 11047A   16356.21457834 -.00000342  00000-0  00000+0 0  9999
2 37804   0.0415 198.8100 0002475 113.2122 345.2677  1.00270702 19330
COSMOS 2473             
1 37806U 11048A   16354.79071824 -.00000115  00000-0  00000-0 0  9993
2 37806   0.0691 107.0843 0002712 199.9431  52.9447  1.00270710 19293
SES-2                   
1 37809U 11049A   16356.26715981 -.00000200  00000-0  00000+0 0  9994
2 37809   0.0120   9.5201 0002451 256.9563 192.9589  1.00271976 19272
ARABSAT-5C              
1 37810U 11049B   16356.23890329  .00000120  00000-0  00000+0 0  9993
2 37810   0.0617 356.6461 0002890 265.9942 293.6287  1.00272989 19164
EUTELSAT 7 WEST A       
1 37816U 11051A   16355.77082563 -.00000066  00000-0  00000-0 0  9994
2 37816   0.0616 342.8472 0005113 261.0616 116.0362  1.00269853 19162
QUETZSAT 1              
1 37826U 11054A   16356.11392775 -.00000246  00000-0  00000+0 0  9995
2 37826   0.0205  27.4665 0002614 251.9408 134.7121  1.00270978 19358
INTELSAT 18 (IS-18)     
1 37834U 11056A   16355.76918200  .00000048  00000-0  00000-0 0  9993
2 37834   0.0178   7.6203 0002443 279.4875 259.5626  1.00271941 19196
EUTELSAT 16A            
1 37836U 11057A   16355.99606772  .00000100  00000-0  00000+0 0  9997
2 37836   0.0633 352.9828 0005145 281.6772 189.9434  1.00274368 19049
VIASAT-1                
1 37843U 11059A   16356.18207341 -.00000028  00000-0  00000+0 0  9998
2 37843   0.0225   2.3163 0002415 270.4536 127.8569  1.00269985 19536
